OBJECT_NAME,OBJECT_ID,EPOCH,MEAN_MOTION,ECCENTRICITY,INCLINATION,RA_OF_ASC_NODE,ARG_OF_PERICENTER,MEAN_ANOMALY,EPHEMERIS_TYPE,CLASSIFICATION_TYPE,NORAD_CAT_ID,ELEMENT_SET_NO,REV_AT_EPOCH,BSTAR,MEAN_MOTION_DOT,MEAN_MOTION_DDOT
STARLINK-1928,2020-074V,2026-06-09T14:00:04.000032,15.99019080,.00016073,53.0325,184.3957,57.4587,6.7434,0,U,46758,999,597,.80690752E-3,.39776E-2,.77608768E-4
STARLINK-1835,2020-074AV,2026-06-09T14:00:04.000032,15.76899347,.00012969,53.0380,182.4951,71.2045,210.9941,0,U,46782,999,594,.19573497E-3,.31746E-3,0
STARLINK-1882,2020-074AX,2026-06-09T14:00:04.000032,15.89637501,.0003447,53.0405,178.6408,73.6141,293.1321,0,U,46784,999,589,.939164E-3,.29173E-2,0
STARLINK-1893,2020-074AZ,2026-06-09T07:38:38.282496,15.70381385,.00021321,53.0434,178.9224,59.7222,300.4006,0,U,46786,999,31177,.65043616E-3,.81246E-3,0
STARLINK-1931,2020-074BD,2026-06-09T14:00:04.000032,15.97093138,.00019124,53.0322,184.2034,45.7398,212.6989,0,U,46790,999,596,.96607603E-3,.427853E-2,.8638437E-4
STARLINK-1942,2020-074BH,2026-06-09T14:00:04.000032,15.70272476,.00019232,53.0389,209.4194,60.5387,225.8126,0,U,46794,999,574,.79791209E-3,.99569E-3,0
STARLINK-1944,2020-074BK,2026-06-09T14:00:04.000032,15.91643595,.00014149,53.0361,172.8875,94.9214,212.1647,0,U,46796,999,590,.80793779E-3,.266246E-2,.37582635E-4
STARLINK-1777,2020-088A,2026-06-09T08:31:48.910080,15.68347387,.00049542,53.0444,196.7117,330.1306,29.9427,0,U,47122,999,30640,.52139465E-3,.59605E-3,0
STARLINK-1812,2020-088E,2026-06-09T11:45:29.954592,15.20699262,.00012507,53.0764,240.3559,10.4427,349.6594,0,U,47126,999,30581,.14080867E-2,.31151E-3,0
STARLINK-1845,2020-088P,2026-06-09T09:07:28.276032,15.71768338,.0003882,53.0448,188.2040,338.9910,21.0947,0,U,47135,999,30652,.58633227E-3,.77575E-3,0
STARLINK-1856,2020-088X,2026-06-09T14:00:04.000032,15.69572756,.00054401,53.0436,185.9111,34.4365,12.6801,0,U,47143,999,597,.41353982E-3,.49562E-3,0
STARLINK-1871,2020-088AM,2026-06-09T13:08:33.740736,15.36336860,.00045751,53.1560,228.2692,344.3766,15.7096,0,U,47157,999,30600,.89797046E-3,.32038E-3,0
STARLINK-1873,2020-088AN,2026-06-09T14:00:04.000032,15.80009528,.00019469,53.0408,176.3381,93.2697,61.8599,0,U,47158,999,594,.55336022E-3,.105595E-2,0
STARLINK-1876,2020-088AR,2026-06-09T14:00:04.000032,15.89483986,.00086184,53.0390,174.3332,8.0890,183.1818,0,U,47161,999,586,.91057403E-3,.269624E-2,.37520601E-4
STARLINK-1888,2020-088BB,2026-06-09T08:56:58.025184,15.67929072,.00050366,53.0452,194.2322,3.5797,356.5254,0,U,47171,999,30644,.59906998E-3,.67467E-3,0
STARLINK-1912,2020-088BJ,2026-06-09T08:26:03.712704,15.75431653,.00014185,53.0450,191.5710,81.3997,278.7183,0,U,47178,999,30647,.56188057E-3,.87125E-3,0
STARLINK-1913,2020-088BK,2026-06-09T11:36:48.538368,15.34528417,.0004296,53.1586,239.7261,0.4100,359.6906,0,U,47179,999,30583,.13344401E-2,.45176E-3,0
STARLINK-2017,2021-005C,2026-06-09T13:00:09.692640,15.31710153,.00014044,53.1590,306.3842,93.4195,266.6968,0,U,47351,999,29779,.30469371E-3,.9104E-4,0
STARLINK-2034,2021-005D,2026-06-08T19:33:06.947136,15.31663420,.00013074,53.1593,348.8334,79.6204,280.4945,0,U,47352,999,29713,-.40254367E-3,-.12821E-3,0
STARLINK-2045,2021-005E,2026-06-09T12:27:54.728352,15.31704347,.00011515,53.1585,293.4822,71.4471,288.6656,0,U,47353,999,29797,.54623747E-4,.133E-4,0
STARLINK-2046,2021-005F,2026-06-09T03:25:57.272736,15.31699690,.00009115,53.1616,318.5615,102.4616,257.6487,0,U,47354,999,29758,.54677861E-4,.1332E-4,0
STARLINK-2047,2021-005G,2026-06-09T02:34:32.022912,15.31697225,.00008953,53.1611,305.7322,78.8352,281.2750,0,U,47355,999,29775,.31770394E-4,.621E-5,0
STARLINK-2049,2021-005H,2026-06-08T18:26:45.573792,15.31700754,.00009535,53.1598,333.2946,88.6651,271.4460,0,U,47356,999,29733,.2141889E-5,-.298E-5,0
STARLINK-2050,2021-005J,2026-06-08T19:43:43.067136,15.31672215,.00018295,53.1613,358.9572,86.9027,273.2184,0,U,47357,999,29698,.11307662E-3,.3142E-4,0
STARLINK-2055,2021-005K,2026-06-09T04:57:22.052736,15.30829727,.0000488,53.1608,331.6376,104.1580,255.9475,0,U,47358,999,29739,.42714E-3,.1256E-3,0
STARLINK-2071,2021-005N,2026-06-08T18:12:43.642944,15.30197105,.0000682,53.1590,333.7394,104.6542,255.4534,0,U,47361,999,29732,.38181365E-4,.772E-5,0
STARLINK-2076,2021-005P,2026-06-09T05:55:48.817056,15.35615092,.0001599,53.1592,356.0257,241.9602,118.1240,0,U,47362,999,29706,.14007E-2,.49135E-3,0
STARLINK-2081,2021-005T,2026-06-08T19:36:27.953280,15.31703722,.00009344,53.1630,358.6953,73.9560,286.1545,0,U,47366,999,29698,.9263382E-5,-.77E-6,0
STARLINK-2082,2021-005U,2026-06-09T05:47:15.361728,15.31673342,.0001589,53.1616,356.7866,71.3334,288.7840,0,U,47367,999,29705,-.17886E-3,-.5907E-4,0
STARLINK-2084,2021-005V,2026-06-08T19:50:20.711904,15.31711769,.00012883,53.1609,358.5639,82.6762,277.4386,0,U,47368,999,29699,.82510527E-4,.2197E-4,0
STARLINK-2088,2021-005Y,2026-06-09T06:55:32.387520,15.31698668,.00011497,53.1608,0.2563,80.9407,279.1724,0,U,47371,999,29700,.17993776E-3,.5222E-4,0
STARLINK-2092,2021-005AA,2026-06-08T20:03:16.405920,15.31692033,.00012004,53.1601,358.5061,88.9106,271.2033,0,U,47373,999,29699,-.15223034E-3,-.5085E-4,0
STARLINK-2093,2021-005AB,2026-06-09T14:00:04.000032,15.93559437,.00050582,53.0407,306.4988,303.3723,148.4680,0,U,47374,999,601,.8045885E-3,.293775E-2,.44266486E-4
STARLINK-2094,2021-005AC,2026-06-09T06:07:20.055936,15.31697845,.0000878,53.1602,356.5796,92.6600,267.4502,0,U,47375,999,29705,-.11222E-4,-.713E-5,0
STARLINK-2096,2021-005AD,2026-06-09T06:14:02.774112,15.31694111,.0000931,53.1615,356.5683,94.9476,265.1632,0,U,47376,999,29705,-.66377E-4,-.2424E-4,0
STARLINK-2097,2021-005AE,2026-06-09T14:00:04.000032,15.31714728,.0001399,53.1593,358.8171,92.7759,66.3702,0,U,47377,999,586,.85229032E-3,.26188E-3,0
STARLINK-2098,2021-005AF,2026-06-09T02:56:14.586720,15.31697890,.00011834,53.1616,308.8462,85.1035,275.0102,0,U,47378,999,29772,.10790758E-4,-.3E-6,0
STARLINK-2099,2021-005AG,2026-06-09T03:09:32.223744,15.31697064,.00008007,53.1593,308.1771,71.0320,289.0768,0,U,47379,999,29773,.35667354E-4,.742E-5,0
STARLINK-2100,2021-005AH,2026-06-09T14:00:04.000032,15.78513035,.00064793,53.0560,308.2285,302.7234,328.9728,0,U,47380,999,603,.55120262E-3,.98273E-3,0
STARLINK-2101,2021-005AJ,2026-06-09T04:51:58.648032,15.31697583,.0001144,53.1600,331.7262,69.5190,290.5934,0,U,47381,999,29740,-.37995E-4,-.1544E-4,0
STARLINK-2102,2021-005AK,2026-06-08T17:36:48.366432,15.31700391,.00011159,53.1605,323.0309,91.3937,268.7192,0,U,47382,999,29748,.17911537E-4,.191E-5,0
STARLINK-2103,2021-005AL,2026-06-07T17:12:38.071584,15.34229915,.00018032,53.1598,315.2073,299.9135,60.1688,0,U,47383,999,29751,.15192844E-2,.51028E-3,0
STARLINK-2104,2021-005AM,2026-06-09T04:19:31.576512,15.30193787,.00014686,53.1591,331.7387,89.7667,270.3502,0,U,47384,999,29739,-.15360248E-4,-.814E-5,0
STARLINK-2105,2021-005AN,2026-06-09T04:17:24.221184,15.31698497,.00013504,53.1636,331.5047,91.5310,268.5846,0,U,47385,999,29739,.57086845E-4,.1407E-4,0
STARLINK-2106,2021-005AP,2026-06-08T18:30:56.608992,15.30195076,.00014096,53.1602,333.6265,98.4769,261.6391,0,U,47386,999,29733,.54054526E-4,.1242E-4,0
STARLINK-2109,2021-005AR,2026-06-09T06:15:15.108192,15.31698172,.0001178,53.1604,0.3179,119.2819,240.8300,0,U,47388,999,29699,.58317E-6,-.347E-5,0
STARLINK-2110,2021-005AS,2026-06-09T04:50:53.632032,15.31683863,.0001689,53.1589,331.0442,88.0588,272.0606,0,U,47389,999,29741,-.14915E-3,-.4988E-4,0
STARLINK-2111,2021-005AT,2026-06-08T20:17:56.604192,15.31698663,.00012105,53.1618,2.3020,84.5279,275.5860,0,U,47390,999,29693,.5607222E-4,.1375E-4,0
STARLINK-2112,2021-005AU,2026-06-08T18:31:37.669728,15.11702743,.0001154,53.0677,340.9518,143.3561,216.7510,0,U,47391,999,29721,.17608499E-2,.30162E-3,0
STARLINK-2113,2021-005AV,2026-06-09T14:00:04.000032,15.83709747,.00017756,53.0432,282.6009,22.4210,258.7058,0,U,47392,999,604,.43843628E-3,.9923E-3,0
STARLINK-2114,2021-005AW,2026-06-09T18:45:20.990016,16.10880306,.0013439,53.0245,241.3196,335.8289,24.2113,0,U,47393,999,29869,.11022E-2,.1133062E-1,.80915E-3
STARLINK-2119,2021-005BA,2026-06-09T13:01:21.830592,15.33966417,.00011768,53.1602,355.2583,244.0978,115.9903,0,U,47397,999,29710,.19547512E-2,.65337E-3,0
STARLINK-2121,2021-005BC,2026-06-09T04:57:35.267616,15.31704201,.0001161,53.1601,330.9840,84.3639,275.7494,0,U,47399,999,29741,.56158E-4,.1378E-4,0
STARLINK-2122,2021-005BD,2026-06-09T03:16:15.296160,15.31690425,.00015306,53.1638,308.1387,95.0871,265.0306,0,U,47400,999,29773,-.41933347E-4,-.1666E-4,0
STARLINK-2123,2021-005BE,2026-06-09T04:30:47.304000,15.31709882,.000107,53.1606,331.3291,82.0115,278.1008,0,U,47401,999,29740,.25291E-4,.42E-5,0
STARLINK-2128,2021-005BH,2026-06-09T14:00:04.000032,15.84452099,.00036556,53.0399,280.8260,320.7212,312.5355,0,U,47404,999,594,.63628018E-3,.150475E-2,0
STARLINK-2130,2021-005BJ,2026-06-08T20:56:58.497792,15.31695141,.0001299,53.1620,358.2663,68.3807,291.7333,0,U,47405,999,29699,-.5278683E-4,-.2002E-4,0
STARLINK-2134,2021-005BL,2026-06-09T13:01:42.334176,15.31716136,.00012963,53.1593,331.5184,85.2056,274.9094,0,U,47407,999,29742,.34568902E-3,.10382E-3,0
STARLINK-2135,2021-005BM,2026-06-08T18:20:05.858880,15.31696956,.0001009,53.1583,333.5344,99.8808,260.2307,0,U,47408,999,29733,.13823761E-3,.3927E-4,0
STARLINK-1954,2021-009H,2026-06-09T12:52:07.856256,15.40522302,.00001952,53.0522,298.8870,9.0564,351.0443,0,U,47555,999,29507,.14661151E-2,.60496E-3,0
STARLINK-1958,2021-009M,2026-06-09T10:59:58.625088,16.01021687,.00047962,53.0301,221.2853,349.7224,10.3706,0,U,47559,999,29614,.83007086E-3,.459872E-2,.1036451E-3
STARLINK-1962,2021-009R,2026-06-09T14:00:04.000032,15.89460903,.00018823,53.0364,260.4055,17.2047,48.2301,0,U,47563,999,599,.87266425E-3,.26784E-2,0
STARLINK-1964,2021-009T,2026-06-09T14:00:04.000032,15.96325180,.00105345,53.0335,228.9567,329.4860,100.7266,0,U,47565,999,606,.83424746E-3,.355768E-2,.62006932E-4
